STARLINK-4362           
1 53043U 22077A   25362.05816713  .00001374  00000+0  11152-3 0  9999
2 53043  97.6043 180.0870 0001739  85.4702 274.6721 15.01262142190177
STARLINK-4349           
1 53044U 22077B   25362.33335648  .00172034  00000+0  45774-2 0  9992
2 53044  97.6040 182.0939 0001758  67.8811 102.7491 15.37520958  5833
STARLINK-4350           
1 53045U 22077C   25362.08965522 -.00000249  00000+0 -13048-4 0  9996
2 53045  97.6029 180.6418 0001719  84.9837 275.1586 15.05648375190218
STARLINK-4331           
1 53046U 22077D   25362.04812695 -.00000034  00000+0  18833-5 0  9994
2 53046  97.6027 180.6952 0001445  81.9489 278.1901 15.05649319190219
STARLINK-4352           
1 53047U 22077E   25362.03804481  .00000351  00000+0  31893-4 0  9999
2 53047  97.6021 180.1054 0003376  44.6695 315.4801 15.01261820190174
STARLINK-4355           
1 53048U 22077F   25362.14227398 -.00000399  00000+0 -23475-4 0  9999
2 53048  97.6022 180.7214 0001796  77.5963 282.5465 15.05647711190213
STARLINK-4345           
1 53049U 22077G   25362.04336658  .00001352  00000+0  10975-3 0  9997
2 53049  97.6020 180.0866 0002946  55.8852 304.2652 15.01273031190162
STARLINK-4343           
1 53050U 22077H   25362.23087667  .00000515  00000+0  39887-4 0  9997
2 53050  97.6036 180.7531 0001922  88.9946 271.1501 15.05646224190225
STARLINK-4336           
1 53051U 22077J   25362.05076275  .00000520  00000+0  45028-4 0  9991
2 53051  97.6027 180.0696 0001772  77.0302 283.1120 15.01263746190162
STARLINK-4341           
1 53052U 22077K   25362.04706044  .00000729  00000+0  61321-4 0  9990
2 53052  97.6022 180.0845 0002360  68.0712 292.0763 15.01261332190164
STARLINK-4337           
1 53053U 22077L   25362.03965355  .00000353  00000+0  32045-4 0  9996
2 53053  97.6020 180.0779 0002922  52.8026 307.3465 15.01263016190162
STARLINK-4339           
1 53054U 22077M   25362.26135752  .00000858  00000+0  63669-4 0  9998
2 53054  97.6040 180.8565 0001253  62.6289 297.5065 15.05649093190233
STARLINK-4338           
1 53055U 22077N   25362.22533863  .00000086  00000+0  10172-4 0  9994
2 53055  97.6031 180.7359 0001693  83.4454 276.6966 15.05647798190224
STARLINK-4314           
1 53056U 22077P   25362.27795329  .00000129  00000+0  13141-4 0  9994
2 53056  97.6019 180.8272 0001691  83.3196 276.8223 15.05649353190234
STARLINK-4252           
1 53057U 22077Q   25362.10351686  .00000091  00000+0  10524-4 0  9991
2 53057  97.6038 180.7332 0001767  84.8153 275.3275 15.05644147190210
STARLINK-4317           
1 53058U 22077R   25362.05286258  .00000826  00000+0  68817-4 0  9992
2 53058  97.6031 180.0529 0001716  72.8509 287.2903 15.01261480190177
