[{"OBJECT_NAME":"STARLINK-4362","OBJECT_ID":"2022-077A","EPOCH":"2025-12-28T01:23:45.640032","MEAN_MOTION":15.01262142,"ECCENTRICITY":0.00017396,"INCLINATION":97.6043,"RA_OF_ASC_NODE":180.087,"ARG_OF_PERICENTER":85.4702,"MEAN_ANOMALY":274.6721,"EPHEMERIS_TYPE":0,"CLASSIFICATION_TYPE":"U","NORAD_CAT_ID":53043,"ELEMENT_SET_NO":999,"REV_AT_EPOCH":19017,"BSTAR":0.00011151897,"MEAN_MOTION_DOT":1.374e-5,"MEAN_MOTION_DDOT":0},{"OBJECT_NAME":"STARLINK-4349","OBJECT_ID":"2022-077B","EPOCH":"2025-12-28T08:00:01.999872","MEAN_MOTION":15.37520958,"ECCENTRICITY":0.00017582,"INCLINATION":97.604,"RA_OF_ASC_NODE":182.0939,"ARG_OF_PERICENTER":67.8811,"MEAN_ANOMALY":102.7491,"EPHEMERIS_TYPE":0,"CLASSIFICATION_TYPE":"U","NORAD_CAT_ID":53044,"ELEMENT_SET_NO":999,"REV_AT_EPOCH":583,"BSTAR":0.0045774109,"MEAN_MOTION_DOT":0.00172034,"MEAN_MOTION_DDOT":0},{"OBJECT_NAME":"STARLINK-4350","OBJECT_ID":"2022-077C","EPOCH":"2025-12-28T02:09:06.211008","MEAN_MOTION":15.05648375,"ECCENTRICITY":0.00017195,"INCLINATION":97.6029,"RA_OF_ASC_NODE":180.6418,"ARG_OF_PERICENTER":84.9837,"MEAN_ANOMALY":275.1586,"EPHEMERIS_TYPE":0,"CLASSIFICATION_TYPE":"U","NORAD_CAT_ID":53045,"ELEMENT_SET_NO":999,"REV_AT_EPOCH":19021,"BSTAR":-1.3047858e-5,"MEAN_MOTION_DOT":-2.49e-6,"MEAN_MOTION_DDOT":0},{"OBJECT_NAME":"STARLINK-4331","OBJECT_ID":"2022-077D","EPOCH":"2025-12-28T01:09:18.168480","MEAN_MOTION":15.05649319,"ECCENTRICITY":0.00014451,"INCLINATION":97.6027,"RA_OF_ASC_NODE":180.6952,"ARG_OF_PERICENTER":81.9489,"MEAN_ANOMALY":278.1901,"EPHEMERIS_TYPE":0,"CLASSIFICATION_TYPE":"U","NORAD_CAT_ID":53046,"ELEMENT_SET_NO":999,"REV_AT_EPOCH":19021,"BSTAR":1.883257e-6,"MEAN_MOTION_DOT":-3.4e-7,"MEAN_MOTION_DDOT":0},{"OBJECT_NAME":"STARLINK-4352","OBJECT_ID":"2022-077E","EPOCH":"2025-12-28T00:54:47.071584","MEAN_MOTION":15.0126182,"ECCENTRICITY":0.00033766,"INCLINATION":97.6021,"RA_OF_ASC_NODE":180.1054,"ARG_OF_PERICENTER":44.6695,"MEAN_ANOMALY":315.4801,"EPHEMERIS_TYPE":0,"CLASSIFICATION_TYPE":"U","NORAD_CAT_ID":53047,"ELEMENT_SET_NO":999,"REV_AT_EPOCH":19017,"BSTAR":3.1892516e-5,"MEAN_MOTION_DOT":3.51e-6,"MEAN_MOTION_DDOT":0},{"OBJECT_NAME":"STARLINK-4355","OBJECT_ID":"2022-077F","EPOCH":"2025-12-28T03:24:52.471872","MEAN_MOTION":15.05647711,"ECCENTRICITY":0.00017968,"INCLINATION":97.6022,"RA_OF_ASC_NODE":180.7214,"ARG_OF_PERICENTER":77.5963,"MEAN_ANOMALY":282.5465,"EPHEMERIS_TYPE":0,"CLASSIFICATION_TYPE":"U","NORAD_CAT_ID":53048,"ELEMENT_SET_NO":999,"REV_AT_EPOCH":19021,"BSTAR":-2.3474639e-5,"MEAN_MOTION_DOT":-3.99e-6,"MEAN_MOTION_DDOT":0},{"OBJECT_NAME":"STARLINK-4345","OBJECT_ID":"2022-077G","EPOCH":"2025-12-28T01:02:26.872512","MEAN_MOTION":15.01273031,"ECCENTRICITY":0.00029461,"INCLINATION":97.602,"RA_OF_ASC_NODE":180.0866,"ARG_OF_PERICENTER":55.8852,"MEAN_ANOMALY":304.2652,"EPHEMERIS_TYPE":0,"CLASSIFICATION_TYPE":"U","NORAD_CAT_ID":53049,"ELEMENT_SET_NO":999,"REV_AT_EPOCH":19016,"BSTAR":0.00010975092,"MEAN_MOTION_DOT":1.352e-5,"MEAN_MOTION_DDOT":0},{"OBJECT_NAME":"STARLINK-4343","OBJECT_ID":"2022-077H","EPOCH":"2025-12-28T05:32:27.744288","MEAN_MOTION":15.05646224,"ECCENTRICITY":0.00019226,"INCLINATION":97.6036,"RA_OF_ASC_NODE":180.7531,"ARG_OF_PERICENTER":88.9946,"MEAN_ANOMALY":271.1501,"EPHEMERIS_TYPE":0,"CLASSIFICATION_TYPE":"U","NORAD_CAT_ID":53050,"ELEMENT_SET_NO":999,"REV_AT_EPOCH":19022,"BSTAR":3.988722e-5,"MEAN_MOTION_DOT":5.15e-6,"MEAN_MOTION_DDOT":0},{"OBJECT_NAME":"STARLINK-4336","OBJECT_ID":"2022-077J","EPOCH":"2025-12-28T01:13:05.901600","MEAN_MOTION":15.01263746,"ECCENTRICITY":0.0001772,"INCLINATION":97.6027,"RA_OF_ASC_NODE":180.0696,"ARG_OF_PERICENTER":77.0302,"MEAN_ANOMALY":283.112,"EPHEMERIS_TYPE":0,"CLASSIFICATION_TYPE":"U","NORAD_CAT_ID":53051,"ELEMENT_SET_NO":999,"REV_AT_EPOCH":19016,"BSTAR":4.5027733e-5,"MEAN_MOTION_DOT":5.2e-6,"MEAN_MOTION_DDOT":0},{"OBJECT_NAME":"STARLINK-4341","OBJECT_ID":"2022-077K","EPOCH":"2025-12-28T01:07:46.022016","MEAN_MOTION":15.01261332,"ECCENTRICITY":0.00023609,"INCLINATION":97.6022,"RA_OF_ASC_NODE":180.0845,"ARG_OF_PERICENTER":68.0712,"MEAN_ANOMALY":292.0763,"EPHEMERIS_TYPE":0,"CLASSIFICATION_TYPE":"U","NORAD_CAT_ID":53052,"ELEMENT_SET_NO":999,"REV_AT_EPOCH":19016,"BSTAR":6.1320792e-5,"MEAN_MOTION_DOT":7.29e-6,"MEAN_MOTION_DDOT":0},{"OBJECT_NAME":"STARLINK-4337","OBJECT_ID":"2022-077L","EPOCH":"2025-12-28T00:57:06.066720","MEAN_MOTION":15.01263016,"ECCENTRICITY":0.00029223,"INCLINATION":97.602,"RA_OF_ASC_NODE":180.0779,"ARG_OF_PERICENTER":52.8026,"MEAN_ANOMALY":307.3465,"EPHEMERIS_TYPE":0,"CLASSIFICATION_TYPE":"U","NORAD_CAT_ID":53053,"ELEMENT_SET_NO":999,"REV_AT_EPOCH":19016,"BSTAR":3.2045311e-5,"MEAN_MOTION_DOT":3.53e-6,"MEAN_MOTION_DDOT":0},{"OBJECT_NAME":"STARLINK-4339","OBJECT_ID":"2022-077M","EPOCH":"2025-12-28T06:16:21.289728","MEAN_MOTION":15.05649093,"ECCENTRICITY":0.00012531,"INCLINATION":97.604,"RA_OF_ASC_NODE":180.8565,"ARG_OF_PERICENTER":62.6289,"MEAN_ANOMALY":297.5065,"EPHEMERIS_TYPE":0,"CLASSIFICATION_TYPE":"U","NORAD_CAT_ID":53054,"ELEMENT_SET_NO":999,"REV_AT_EPOCH":19023,"BSTAR":6.3669216e-5,"MEAN_MOTION_DOT":8.58e-6,"MEAN_MOTION_DDOT":0},{"OBJECT_NAME":"STARLINK-4338","OBJECT_ID":"2022-077N","EPOCH":"2025-12-28T05:24:29.257632","MEAN_MOTION":15.05647798,"ECCENTRICITY":0.00016934,"INCLINATION":97.6031,"RA_OF_ASC_NODE":180.7359,"ARG_OF_PERICENTER":83.4454,"MEAN_ANOMALY":276.6966,"EPHEMERIS_TYPE":0,"CLASSIFICATION_TYPE":"U","NORAD_CAT_ID":53055,"ELEMENT_SET_NO":999,"REV_AT_EPOCH":19022,"BSTAR":1.0171854e-5,"MEAN_MOTION_DOT":8.6e-7,"MEAN_MOTION_DDOT":0},{"OBJECT_NAME":"STARLINK-4314","OBJECT_ID":"2022-077P","EPOCH":"2025-12-28T06:40:15.164256","MEAN_MOTION":15.05649353,"ECCENTRICITY":0.00016914,"INCLINATION":97.6019,"RA_OF_ASC_NODE":180.8272,"ARG_OF_PERICENTER":83.3196,"MEAN_ANOMALY":276.8223,"EPHEMERIS_TYPE":0,"CLASSIFICATION_TYPE":"U","NORAD_CAT_ID":53056,"ELEMENT_SET_NO":999,"REV_AT_EPOCH":19023,"BSTAR":1.3141385e-5,"MEAN_MOTION_DOT":1.29e-6,"MEAN_MOTION_DDOT":0},{"OBJECT_NAME":"STARLINK-4252","OBJECT_ID":"2022-077Q","EPOCH":"2025-12-28T02:29:03.856704","MEAN_MOTION":15.05644147,"ECCENTRICITY":0.00017679,"INCLINATION":97.6038,"RA_OF_ASC_NODE":180.7332,"ARG_OF_PERICENTER":84.8153,"MEAN_ANOMALY":275.3275,"EPHEMERIS_TYPE":0,"CLASSIFICATION_TYPE":"U","NORAD_CAT_ID":53057,"ELEMENT_SET_NO":999,"REV_AT_EPOCH":19021,"BSTAR":1.052402e-5,"MEAN_MOTION_DOT":9.1e-7,"MEAN_MOTION_DDOT":0},{"OBJECT_NAME":"STARLINK-4317","OBJECT_ID":"2022-077R","EPOCH":"2025-12-28T01:16:07.326912","MEAN_MOTION":15.0126148,"ECCENTRICITY":0.00017166,"INCLINATION":97.6031,"RA_OF_ASC_NODE":180.0529,"ARG_OF_PERICENTER":72.8509,"MEAN_ANOMALY":287.2903,"EPHEMERIS_TYPE":0,"CLASSIFICATION_TYPE":"U","NORAD_CAT_ID":53058,"ELEMENT_SET_NO":999,"REV_AT_EPOCH":19017,"BSTAR":6.881749e-5,"MEAN_MOTION_DOT":8.26e-6,"MEAN_MOTION_DDOT":0}]
